{"type": "FeatureCollection", "features": [ {"type": "Feature", "properties": {"norad_id": 37036, "name": "FENGYUN 1C DEB", "group": "fengyun-1c-debris", "lat": 69.80365982143985, "lon": -46.63783041271699, "alt_km": 786.4361554588486, "timestamp": "2025-12-11T05:00:26.597345+00:00", "meta": {"OBJECT_NAME": "FENGYUN 1C DEB", "OBJECT_ID": "1999-025EDU", "EPOCH": "2025-12-10T16:41:53.236320", "MEAN_MOTION": 14.03563948, "ECCENTRICITY": 0.01243108, "INCLINATION": 98.7137, "RA_OF_ASC_NODE": 337.5102, "ARG_OF_PERICENTER": 60.8898, "MEAN_ANOMALY": 300.4649, "EPHEMERIS_TYPE": 0, "CLASSIFICATION_TYPE": "U", "NORAD_CAT_ID": 37036, "ELEMENT_SET_NO": 999, "REV_AT_EPOCH": 63719, "BSTAR": 0.00069616367, "MEAN_MOTION_DOT": 1.128e-05, "MEAN_MOTION_DDOT": 0}, "tle": {"line1": "1 37036U 99025EDU 25344.69575505  .00001128  00000+0  69616-3 0  9996", "line2": "2 37036  98.7137 337.5102 0124310  60.8898 300.4649 14.03563948637192"}}, "geometry": {"type": "Point", "coordinates": [-46.63783041271699, 69.80365982143985]}}, {"type": "Feature", "properties": {"norad_id": 37044, "name": "FENGYUN 1C DEB", "group": "fengyun-1c-debris", "lat": 31.11322855561058, "lon": 85.93741147864155, "alt_km": 1244.5459357383834, "timestamp": "2025-12-11T05:00:26.597355+00:00", "meta": {"OBJECT_NAME": "FENGYUN 1C DEB", "OBJECT_ID": "1999-025EEC", "EPOCH": "2025-12-09T12:32:45.701088", "MEAN_MOTION": 13.70710675, "ECCENTRICITY": 0.0509297, "INCLINATION": 98.9607, "RA_OF_ASC_NODE": 89.8221, "ARG_OF_PERICENTER": 169.8577, "MEAN_ANOMALY": 191.3334, "EPHEMERIS_TYPE": 0, "CLASSIFICATION_TYPE": "U", "NORAD_CAT_ID": 37044, "ELEMENT_SET_NO": 999, "REV_AT_EPOCH": 83814, "BSTAR": 0.0046626, "MEAN_MOTION_DOT": 0.00010455, "MEAN_MOTION_DDOT": 0}, "tle": {"line1": "1 37044U 99025EEC 25343.52275117  .00010455  00000+0  46626-2 0  9990", "line2": "2 37044  98.9607  89.8221 0509297 169.8577 191.3334 13.70710675838149"}}, "geometry": {"type": "Point", "coordinates": [85.93741147864155, 31.11322855561058]}}, {"type": "Feature", "properties": {"norad_id": 37046, "name": "FENGYUN 1C DEB", "group": "fengyun-1c-debris", "lat": 42.20195571908647, "lon": -172.66073083867565, "alt_km": 840.7707361414341, "timestamp": "2025-12-11T05:00:26.597365+00:00", "meta": {"OBJECT_NAME": "FENGYUN 1C DEB", "OBJECT_ID": "1999-025EEE", "EPOCH": "2025-12-09T18:39:23.306112", "MEAN_MOTION": 14.24826454, "ECCENTRICITY": 0.00492007, "INCLINATION": 98.5439, "RA_OF_ASC_NODE": 358.1114, "ARG_OF_PERICENTER": 315.8191, "MEAN_ANOMALY": 43.9064, "EPHEMERIS_TYPE": 0, "CLASSIFICATION_TYPE": "U", "NORAD_CAT_ID": 37046, "ELEMENT_SET_NO": 999, "REV_AT_EPOCH": 64139, "BSTAR": 0.0012562641, "MEAN_MOTION_DOT": 2.925e-05, "MEAN_MOTION_DDOT": 0}, "tle": {"line1": "1 37046U 99025EEE 25343.77735308  .00002925  00000+0  12563-2 0  9998", "line2": "2 37046  98.5439 358.1114 0049200 315.8191  43.9064 14.24826454641395"}}, "geometry": {"type": "Point", "coordinates": [-172.66073083867565, 42.20195571908647]}}, {"type": "Feature", "properties": {"norad_id": 37048, "name": "FENGYUN 1C DEB", "group": "fengyun-1c-debris", "lat": -47.27546532500203, "lon": -143.6035122954723, "alt_km": 1197.5127910225183, "timestamp": "2025-12-11T05:00:26.597375+00:00", "meta": {"OBJECT_NAME": "FENGYUN 1C DEB", "OBJECT_ID": "1999-025EEG", "EPOCH": "2025-12-08T21:18:37.158048", "MEAN_MOTION": 13.6513296, "ECCENTRICITY": 0.025318, "INCLINATION": 98.885, "RA_OF_ASC_NODE": 204.5179, "ARG_OF_PERICENTER": 159.5311, "MEAN_ANOMALY": 272.4204, "EPHEMERIS_TYPE": 0, "CLASSIFICATION_TYPE": "U", "NORAD_CAT_ID": 37048, "ELEMENT_SET_NO": 999, "REV_AT_EPOCH": 62117, "BSTAR": 0.00022488, "MEAN_MOTION_DOT": 1.89e-06, "MEAN_MOTION_DDOT": 0}, "tle": {"line1": "1 37048U 99025EEG 25342.88793007  .00000189  00000+0  22488-3 0  9999", "line2": "2 37048  98.8850 204.5179 0253180 159.5311 272.4204 13.65132960621178"}}, "geometry": {"type": "Point", "coordinates": [-143.6035122954723, -47.27546532500203]}}, {"type": "Feature", "properties": {"norad_id": 37054, "name": "FENGYUN 1C DEB", "group": "fengyun-1c-debris", "lat": 23.160751349088933, "lon": -35.96809260602346, "alt_km": 820.8015847962661, "timestamp": "2025-12-11T05:00:26.597385+00:00", "meta": {"OBJECT_NAME": "FENGYUN 1C DEB", "OBJECT_ID": "1999-025EEN", "EPOCH": "2025-11-29T05:17:38.461056", "MEAN_MOTION": 14.19427383, "ECCENTRICITY": 0.01006888, "INCLINATION": 98.5491, "RA_OF_ASC_NODE": 316.1491, "ARG_OF_PERICENTER": 144.0639, "MEAN_ANOMALY": 216.7364, "EPHEMERIS_TYPE": 0, "CLASSIFICATION_TYPE": "U", "NORAD_CAT_ID": 37054, "ELEMENT_SET_NO": 999, "REV_AT_EPOCH": 64237, "BSTAR": 0.00028093156, "MEAN_MOTION_DOT": 5.8e-06, "MEAN_MOTION_DDOT": 0}, "tle": {"line1": "1 37054U 99025EEN 25333.22058404  .00000580  00000+0  28093-3 0  9992", "line2": "2 37054  98.5491 316.1491 0100688 144.0639 216.7364 14.19427383642375"}}, "geometry": {"type": "Point", "coordinates": [-35.96809260602346, 23.160751349088933]}}, {"type": "Feature", "properties": {"norad_id": 37056, "name": "FENGYUN 1C DEB", "group": "fengyun-1c-debris", "lat": 38.63358350483174, "lon": 0.12779948409774222, "alt_km": 785.6736957710782, "timestamp": "2025-12-11T05:00:26.597395+00:00", "meta": {"OBJECT_NAME": "FENGYUN 1C DEB", "OBJECT_ID": "1999-025EEQ", "EPOCH": "2025-12-10T18:53:13.356096", "MEAN_MOTION": 14.50438483, "ECCENTRICITY": 0.02687271, "INCLINATION": 98.9828, "RA_OF_ASC_NODE": 6.9407, "ARG_OF_PERICENTER": 151.7146, "MEAN_ANOMALY": 209.8942, "EPHEMERIS_TYPE": 0, "CLASSIFICATION_TYPE": "U", "NORAD_CAT_ID": 37056, "ELEMENT_SET_NO": 999, "REV_AT_EPOCH": 65383, "BSTAR": 0.00043069455, "MEAN_MOTION_DOT": 2.622e-05, "MEAN_MOTION_DDOT": 0}, "tle": {"line1": "1 37056U 99025EEQ 25344.78696014  .00002622  00000+0  43069-3 0  9991", "line2": "2 37056  98.9828   6.9407 0268727 151.7146 209.8942 14.50438483653839"}}, "geometry": {"type": "Point", "coordinates": [0.12779948409774222, 38.63358350483174]}}, {"type": "Feature", "properties": {"norad_id": 37057, "name": "FENGYUN 1C DEB", "group": "fengyun-1c-debris", "lat": 80.06130569497095, "lon": -116.22679784197969, "alt_km": 760.8552775096068, "timestamp": "2025-12-11T05:00:26.597405+00:00", "meta": {"OBJECT_NAME": "FENGYUN 1C DEB", "OBJECT_ID": "1999-025EER", "EPOCH": "2025-12-09T18:09:13.045536", "MEAN_MOTION": 13.96100617, "ECCENTRICITY": 0.02851594, "INCLINATION": 98.9229, "RA_OF_ASC_NODE": 358.6511, "ARG_OF_PERICENTER": 147.6005, "MEAN_ANOMALY": 214.3028, "EPHEMERIS_TYPE": 0, "CLASSIFICATION_TYPE": "U", "NORAD_CAT_ID": 37057, "ELEMENT_SET_NO": 999, "REV_AT_EPOCH": 63556, "BSTAR": 0.00066354715, "MEAN_MOTION_DOT": 1.241e-05, "MEAN_MOTION_DDOT": 0}, "tle": {"line1": "1 37057U 99025EER 25343.75640099  .00001241  00000+0  66355-3 0  9999", "line2": "2 37057  98.9229 358.6511 0285159 147.6005 214.3028 13.96100617635564"}}, "geometry": {"type": "Point", "coordinates": [-116.22679784197969, 80.06130569497095]}}, {"type": "Feature", "properties": {"norad_id": 37061, "name": "FENGYUN 1C DEB", "group": "fengyun-1c-debris", "lat": 11.759276885996949, "lon": -128.37613284866956, "alt_km": 1771.0298174561594, "timestamp": "2025-12-11T05:00:26.597415+00:00", "meta": {"OBJECT_NAME": "FENGYUN 1C DEB", "OBJECT_ID": "1999-025EEV", "EPOCH": "2025-12-07T10:36:19.723680", "MEAN_MOTION": 13.13435979, "ECCENTRICITY": 0.08024331, "INCLINATION": 98.0839, "RA_OF_ASC_NODE": 47.0215, "ARG_OF_PERICENTER": 18.6625, "MEAN_ANOMALY": 344.2205, "EPHEMERIS_TYPE": 0, "CLASSIFICATION_TYPE": "U", "NORAD_CAT_ID": 37061, "ELEMENT_SET_NO": 999, "REV_AT_EPOCH": 8086, "BSTAR": 0.0035272865, "MEAN_MOTION_DOT": 6.852e-05, "MEAN_MOTION_DDOT": 0}, "tle": {"line1": "1 37061U 99025EEV 25341.44189495  .00006852  00000+0  35273-2 0  9993", "line2": "2 37061  98.0839  47.0215 0802433  18.6625 344.2205 13.13435979 80860"}}, "geometry": {"type": "Point", "coordinates": [-128.37613284866956, 11.759276885996949]}}, {"type": "Feature", "properties": {"norad_id": 37064, "name": "FENGYUN 1C DEB", "group": "fengyun-1c-debris", "lat": -47.72949226344519, "lon": -52.5904598363985, "alt_km": 885.8757522207334, "timestamp": "2025-12-11T05:00:26.597426+00:00", "meta": {"OBJECT_NAME": "FENGYUN 1C DEB", "OBJECT_ID": "1999-025EEY", "EPOCH": "2025-11-25T16:29:09.460320", "MEAN_MOTION": 14.15612933, "ECCENTRICITY": 0.01070067, "INCLINATION": 98.9095, "RA_OF_ASC_NODE": 121.83, "ARG_OF_PERICENTER": 150.7609, "MEAN_ANOMALY": 209.9612, "EPHEMERIS_TYPE": 0, "CLASSIFICATION_TYPE": "U", "NORAD_CAT_ID": 37064, "ELEMENT_SET_NO": 999, "REV_AT_EPOCH": 81294, "BSTAR": 0.0049331234, "MEAN_MOTION_DOT": 0.00010179, "MEAN_MOTION_DDOT": 0}, "tle": {"line1": "1 37064U 99025EEY 25329.68691505  .00010179  00000+0  49331-2 0  9995", "line2": "2 37064  98.9095 121.8300 0107006 150.7609 209.9612 14.15612933812947"}}, "geometry": {"type": "Point", "coordinates": [-52.5904598363985, -47.72949226344519]}}, {"type": "Feature", "properties": {"norad_id": 37065, "name": "FENGYUN 1C DEB", "group": "fengyun-1c-debris", "lat": 61.863235899391135, "lon": 133.24156505174784, "alt_km": 1254.4871877829582, "timestamp": "2025-12-11T05:00:26.597436+00:00", "meta": {"OBJECT_NAME": "FENGYUN 1C DEB", "OBJECT_ID": "1999-025EEZ", "EPOCH": "2025-12-08T18:22:24.057408", "MEAN_MOTION": 13.59087735, "ECCENTRICITY": 0.0299072, "INCLINATION": 103.286, "RA_OF_ASC_NODE": 156.1612, "ARG_OF_PERICENTER": 251.0293, "MEAN_ANOMALY": 105.8204, "EPHEMERIS_TYPE": 0, "CLASSIFICATION_TYPE": "U", "NORAD_CAT_ID": 37065, "ELEMENT_SET_NO": 999, "REV_AT_EPOCH": 22148, "BSTAR": 0.0044200447, "MEAN_MOTION_DOT": 4.289e-05, "MEAN_MOTION_DDOT": 0}, "tle": {"line1": "1 37065U 99025EEZ 25342.76555622  .00004289  00000+0  44200-2 0  9994", "line2": "2 37065 103.2860 156.1612 0299072 251.0293 105.8204 13.59087735221481"}}, "geometry": {"type": "Point", "coordinates": [133.24156505174784, 61.863235899391135]}}]}